[{"OBJECT_NAME":"KX-09","OBJECT_ID":"2019-058B","EPOCH":"2026-03-09T23:04:56.318016","MEAN_MOTION":14.96388453,"ECCENTRICITY":0.00095225,"INCLINATION":97.7825,"RA_OF_ASC_NODE":82.8152,"ARG_OF_PERICENTER":321.3855,"MEAN_ANOMALY":38.6684,"EPHEMERIS_TYPE":0,"CLASSIFICATION_TYPE":"U","NORAD_CAT_ID":44520,"ELEMENT_SET_NO":999,"REV_AT_EPOCH":35519,"BSTAR":0.00022385026,"MEAN_MOTION_DOT":2.479e-5,"MEAN_MOTION_DDOT":0},{"OBJECT_NAME":"STARLINK-34027","OBJECT_ID":"2025-098L","EPOCH":"2026-03-09T22:26:25.938816","MEAN_MOTION":14.98334092,"ECCENTRICITY":0.00024299,"INCLINATION":70.0009,"RA_OF_ASC_NODE":273.6539,"ARG_OF_PERICENTER":265.762,"MEAN_ANOMALY":94.3262,"EPHEMERIS_TYPE":0,"CLASSIFICATION_TYPE":"U","NORAD_CAT_ID":63936,"ELEMENT_SET_NO":999,"REV_AT_EPOCH":4659,"BSTAR":0.00014169291,"MEAN_MOTION_DOT":1.598e-5,"MEAN_MOTION_DDOT":0}]
